{
  "norad_id": 67741,
  "name": "STARLINK-36740",
  "history": [
    {
      "epoch": "2026-03-28T22:00:01.999584Z",
      "apogee_km": 466.25677366460695,
      "perigee_km": 464.9871195048363,
      "latitude_deg": 29.89251855328695,
      "longitude_deg": 170.1827180588362,
      "height_km": 469.3045772099164,
      "semi_major_axis_km": 6843.758946584721,
      "eccentricity": 9.276e-05,
      "inclination_deg": 97.2853,
      "raan_deg": 142.3302,
      "arg_perigee_deg": 78.9987,
      "mean_anomaly_deg": 70.8844,
      "mean_motion_rev_day": 15.33418525
    },
    {
      "epoch": "2026-03-29T04:00:01.999584Z",
      "apogee_km": 466.3221605021581,
      "perigee_km": 464.88634358748004,
      "latitude_deg": 82.6961366173573,
      "longitude_deg": 173.29457802788048,
      "height_km": 478.45417450855746,
      "semi_major_axis_km": 6843.741252044819,
      "eccentricity": 0.0001049,
      "inclination_deg": 97.2851,
      "raan_deg": 142.5777,
      "arg_perigee_deg": 87.3275,
      "mean_anomaly_deg": 1.7424,
      "mean_motion_rev_day": 15.33424472
    },
    {
      "epoch": "2026-03-30T04:00:01.999584Z",
      "apogee_km": 466.4049376331359,
      "perigee_km": 464.82403104025434,
      "latitude_deg": -25.905635205681477,
      "longitude_deg": 72.45162724322196,
      "height_km": 475.8495238968076,
      "semi_major_axis_km": 6843.751484336695,
      "eccentricity": 0.0001155,
      "inclination_deg": 97.2847,
      "raan_deg": 143.5622,
      "arg_perigee_deg": 83.6536,
      "mean_anomaly_deg": 122.209,
      "mean_motion_rev_day": 15.33421033
    },
    {
      "epoch": "2026-03-30T06:00:02.000160Z",
      "apogee_km": 466.2927506702936,
      "perigee_km": 464.7828991304241,
      "latitude_deg": -54.02566781366204,
      "longitude_deg": -123.92229044461291,
      "height_km": 487.1895586683024,
      "semi_major_axis_km": 6843.6748249003585,
      "eccentricity": 0.00011031,
      "inclination_deg": 97.2846,
      "raan_deg": 143.6439,
      "arg_perigee_deg": 91.207,
      "mean_anomaly_deg": 214.3789,
      "mean_motion_rev_day": 15.33446798
    },
    {
      "epoch": "2026-03-30T14:00:03.000384Z",
      "apogee_km": 466.3988126677559,
      "perigee_km": 464.9847407659099,
      "latitude_deg": -15.515586297123,
      "longitude_deg": 108.00942438606357,
      "height_km": 472.3509052199047,
      "semi_major_axis_km": 6843.828776716832,
      "eccentricity": 0.00010331,
      "inclination_deg": 97.2845,
      "raan_deg": 143.9725,
      "arg_perigee_deg": 96.6132,
      "mean_anomaly_deg": 247.9686,
      "mean_motion_rev_day": 15.33395056
    },
    {
      "epoch": "2026-03-30T22:00:00.999936Z",
      "apogee_km": 466.3588140641705,
      "perigee_km": 464.88329982709183,
      "latitude_deg": 23.201568812447043,
      "longitude_deg": -17.12760238062142,
      "height_km": 468.2979631364126,
      "semi_major_axis_km": 6843.75805694563,
      "eccentricity": 0.0001078,
      "inclination_deg": 97.2843,
      "raan_deg": 144.3015,
      "arg_perigee_deg": 88.8125,
      "mean_anomaly_deg": 294.5791,
      "mean_motion_rev_day": 15.33418824
    },
    {
      "epoch": "2026-03-31T13:33:37.344384Z",
      "apogee_km": 466.20589167160233,
      "perigee_km": 464.7919964855555,
      "latitude_deg": -6.379392723817877e-06,
      "longitude_deg": 112.59332602445541,
      "height_km": 468.7685039640731,
      "semi_major_axis_km": 6843.635944078579,
      "eccentricity": 0.0001033,
      "inclination_deg": 97.2842,
      "raan_deg": 144.9395,
      "arg_perigee_deg": 103.0015,
      "mean_anomaly_deg": 257.1343,
      "mean_motion_rev_day": 15.33459866
    },
    {
      "epoch": "2026-04-01T20:52:59.111040Z",
      "apogee_km": 466.9609397693266,
      "perigee_km": 464.06197028377846,
      "latitude_deg": -7.10868748148219e-07,
      "longitude_deg": 2.7530544756381072,
      "height_km": 468.54163210758736,
      "semi_major_axis_km": 6843.648455026552,
      "eccentricity": 0.0002118,
      "inclination_deg": 97.2842,
      "raan_deg": 146.2263,
      "arg_perigee_deg": 86.8996,
      "mean_anomaly_deg": 273.2489,
      "mean_motion_rev_day": 15.33455661
    },
    {
      "epoch": "2026-04-02T17:14:33.196992Z",
      "apogee_km": 466.22805682438593,
      "perigee_km": 464.8256532272144,
      "latitude_deg": 2.8195761605418556e-05,
      "longitude_deg": 57.36139300984067,
      "height_km": 468.42875708247584,
      "semi_major_axis_km": 6843.6638550258,
      "eccentricity": 0.00010246,
      "inclination_deg": 97.284,
      "raan_deg": 147.0628,
      "arg_perigee_deg": 72.6963,
      "mean_anomaly_deg": 287.4392,
      "mean_motion_rev_day": 15.33450485
    },
    {
      "epoch": "2026-04-03T16:44:04.470144Z",
      "apogee_km": 466.75454867562894,
      "perigee_km": 464.35378181486067,
      "latitude_deg": 3.559685478214875e-05,
      "longitude_deg": 64.98030442104479,
      "height_km": 468.68402574330236,
      "semi_major_axis_km": 6843.6911652452445,
      "eccentricity": 0.0001754,
      "inclination_deg": 97.2836,
      "raan_deg": 148.0268,
      "arg_perigee_deg": 90.9853,
      "mean_anomaly_deg": 269.1591,
      "mean_motion_rev_day": 15.33441306
    },
    {
      "epoch": "2026-04-04T20:55:29.496288Z",
      "apogee_km": 466.5843803876378,
      "perigee_km": 464.4888475270445,
      "latitude_deg": 2.0879800813226378e-05,
      "longitude_deg": 2.1281959716214742,
      "height_km": 468.71158397658655,
      "semi_major_axis_km": 6843.673613957341,
      "eccentricity": 0.0001531,
      "inclination_deg": 97.2844,
      "raan_deg": 149.1867,
      "arg_perigee_deg": 93.5769,
      "mean_anomaly_deg": 266.5649,
      "mean_motion_rev_day": 15.33447205
    },
    {
      "epoch": "2026-04-05T14:09:08.579232Z",
      "apogee_km": 466.2153484618839,
      "perigee_km": 464.84031932345715,
      "latitude_deg": 3.7575728606466784e-05,
      "longitude_deg": 103.71363784009891,
      "height_km": 468.54157881169925,
      "semi_major_axis_km": 6843.66483389267,
      "eccentricity": 0.00010046,
      "inclination_deg": 97.2847,
      "raan_deg": 149.8925,
      "arg_perigee_deg": 81.9147,
      "mean_anomaly_deg": 278.221,
      "mean_motion_rev_day": 15.33450156
    },
    {
      "epoch": "2026-04-05T17:17:04.695072Z",
      "apogee_km": 466.39993713185413,
      "perigee_km": 464.66164551285783,
      "latitude_deg": 2.5037447807796075e-06,
      "longitude_deg": 56.73008894757566,
      "height_km": 468.490543726292,
      "semi_major_axis_km": 6843.667791322356,
      "eccentricity": 0.000127,
      "inclination_deg": 97.284,
      "raan_deg": 150.0214,
      "arg_perigee_deg": 80.0431,
      "mean_anomaly_deg": 280.0955,
      "mean_motion_rev_day": 15.33449162
    },
    {
      "epoch": "2026-04-06T04:14:50.873280Z",
      "apogee_km": 466.25344315548045,
      "perigee_km": 464.75276975293764,
      "latitude_deg": -2.5466257344925544e-05,
      "longitude_deg": -107.71194495561717,
      "height_km": 468.59053239757077,
      "semi_major_axis_km": 6843.640106454209,
      "eccentricity": 0.00010964,
      "inclination_deg": 97.2841,
      "raan_deg": 150.472,
      "arg_perigee_deg": 88.2507,
      "mean_anomaly_deg": 271.8861,
      "mean_motion_rev_day": 15.33458467
    },
    {
      "epoch": "2026-04-07T16:16:06.270240Z",
      "apogee_km": 466.5999120363067,
      "perigee_km": 464.46058165494287,
      "latitude_deg": 2.2103417333692068e-05,
      "longitude_deg": 71.9744633802138,
      "height_km": 468.6511900066081,
      "semi_major_axis_km": 6843.6672468456245,
      "eccentricity": 0.0001563,
      "inclination_deg": 97.2833,
      "raan_deg": 151.9519,
      "arg_perigee_deg": 90.6095,
      "mean_anomaly_deg": 269.5327,
      "mean_motion_rev_day": 15.33449345
    },
    {
      "epoch": "2026-04-08T01:39:54.621216Z",
      "apogee_km": 466.5851023127534,
      "perigee_km": 464.4594617397561,
      "latitude_deg": -4.465023162688309e-05,
      "longitude_deg": -68.977903083749,
      "height_km": 468.58476348605336,
      "semi_major_axis_km": 6843.659282026254,
      "eccentricity": 0.0001553,
      "inclination_deg": 97.2856,
      "raan_deg": 152.3369,
      "arg_perigee_deg": 87.4634,
      "mean_anomaly_deg": 272.6786,
      "mean_motion_rev_day": 15.33452022
    },
    {
      "epoch": "2026-04-09T04:17:21.819264Z",
      "apogee_km": 467.10469518950504,
      "perigee_km": 463.9197977031936,
      "latitude_deg": 5.521612576585071e-06,
      "longitude_deg": -108.34115598744289,
      "height_km": 468.2510946347703,
      "semi_major_axis_km": 6843.649246446349,
      "eccentricity": 0.00023269,
      "inclination_deg": 97.2835,
      "raan_deg": 153.4304,
      "arg_perigee_deg": 76.5864,
      "mean_anomaly_deg": 283.5638,
      "mean_motion_rev_day": 15.33455395
    },
    {
      "epoch": "2026-04-10T10:02:43.372320Z",
      "apogee_km": 466.8050691247163,
      "perigee_km": 463.7638526275023,
      "latitude_deg": -5.456338845185039e-05,
      "longitude_deg": 165.3190089014012,
      "height_km": 468.51588274973994,
      "semi_major_axis_km": 6843.4214608761085,
      "eccentricity": 0.0002222,
      "inclination_deg": 97.2841,
      "raan_deg": 154.6524,
      "arg_perigee_deg": 94.6346,
      "mean_anomaly_deg": 265.515,
      "mean_motion_rev_day": 15.33531958
    },
    {
      "epoch": "2026-04-11T09:32:15.264096Z",
      "apogee_km": 466.7432662484798,
      "perigee_km": 464.4916710282978,
      "latitude_deg": -1.6353423934507335e-05,
      "longitude_deg": 172.93682958874274,
      "height_km": 468.7362150565538,
      "semi_major_axis_km": 6843.754468638389,
      "eccentricity": 0.0001645,
      "inclination_deg": 97.2827,
      "raan_deg": 155.6179,
      "arg_perigee_deg": 90.4753,
      "mean_anomaly_deg": 269.6678,
      "mean_motion_rev_day": 15.3342003
    }
  ]
}